[{"OBJECT_NAME":"ONEWEB-0633","OBJECT_ID":"2023-043AE","EPOCH":"2026-03-09T19:58:29.720352","MEAN_MOTION":13.15547864,"ECCENTRICITY":0.00019829,"INCLINATION":87.8947,"RA_OF_ASC_NODE":279.0207,"ARG_OF_PERICENTER":96.8679,"MEAN_ANOMALY":263.2677,"EPHEMERIS_TYPE":0,"CLASSIFICATION_TYPE":"U","NORAD_CAT_ID":56074,"ELEMENT_SET_NO":999,"REV_AT_EPOCH":14334,"BSTAR":-0.00014128451,"MEAN_MOTION_DOT":-4.0e-7,"MEAN_MOTION_DDOT":0},{"OBJECT_NAME":"FENGYUN 1C DEB","OBJECT_ID":"1999-025CVF","EPOCH":"2026-03-08T06:58:38.855136","MEAN_MOTION":13.47453739,"ECCENTRICITY":0.03283085,"INCLINATION":99.4268,"RA_OF_ASC_NODE":14.8917,"ARG_OF_PERICENTER":171.5574,"MEAN_ANOMALY":189.1275,"EPHEMERIS_TYPE":0,"CLASSIFICATION_TYPE":"U","NORAD_CAT_ID":32209,"ELEMENT_SET_NO":999,"REV_AT_EPOCH":91128,"BSTAR":0.0015338878,"MEAN_MOTION_DOT":1.263e-5,"MEAN_MOTION_DDOT":0}]
